LYNK TOWER 3            
1 55046U 23001AP  26068.68752747  .00013886  00000+0  42324-3 0  9997
2 55046  97.3321 129.5399 0009859 112.8813 247.3472 15.34026505176644
STARLINK-34867          
1 65459U 25195B   26068.75504679  .00025341  00000+0  86453-3 0  9999
2 65459  53.1560 257.8795 0001220 122.2141 237.8979 15.30209726 30005
